STARLINK-31992          
1 60023U 24111H   25322.05056258 -.00019809  00000+0 -67665-3 0  9996
2 60023  53.1605 233.9956 0001340  86.4328 273.6826 15.29322798 81954
STARLINK-31990          
1 60024U 24111J   25322.06460711 -.00003424  00000+0 -10359-3 0  9995
2 60024  53.1595 234.0836 0001569  68.6049 291.5119 15.30174818 81940
STARLINK-31864          
1 60025U 24111K   25322.16670139  .01197960  00000+0  86571-2 0  9990
2 60025  53.1443 226.6105 0016516 163.8312 289.7579 15.70300106  5959
STARLINK-31939          
1 60026U 24111L   25321.98556891  .00010664  00000+0  37207-3 0  9995
2 60026  53.1592 234.3003 0001358  94.3552 265.7604 15.30164400 81936
STARLINK-32012          
1 60027U 24111M   25322.05406132  .00031157  00000+0  10615-2 0  9990
2 60027  53.1590 234.0131 0000982 104.1779 255.9331 15.30143702 81948
STARLINK-32008          
1 60028U 24111N   25322.05827414 -.00000797  00000+0 -14785-4 0  9993
2 60028  53.1598 234.0429 0001526  95.1847 264.9328 15.30177226 81941
STARLINK-32006          
1 60029U 24111P   25322.00245259 -.00008804  00000+0 -28569-3 0  9991
2 60029  53.1601 234.4085 0001283  84.0844 276.0303 15.30175045 81936
STARLINK-32011          
1 60030U 24111Q   25322.03716738 -.00003948  00000+0 -12132-3 0  9994
2 60030  53.1604 233.9144 0001383  79.5640 280.5516 15.30176343 81944
STARLINK-31878          
1 60031U 24111R   25321.88848883  .00015037  00000+0  51865-3 0  9990
2 60031  53.1597 183.1623 0001434  84.6738 275.4426 15.30209021 82399
STARLINK-32017          
1 60032U 24111S   25322.07199440  .00001338  00000+0  57339-4 0  9993
2 60032  53.1597 234.1486 0001286  85.6906 274.4242 15.30178162 81943
STARLINK-32005          
1 60034U 24111U   25322.06144856 -.00004611  00000+0 -14373-3 0  9994
2 60034  53.1608 234.0604 0001270  87.6843 272.4303 15.30183222 81842
STARLINK-31981          
1 60035U 24111V   25322.08043275 -.00021770  00000+0 -72620-3 0  9994
2 60035  53.1612 234.1774 0001074  91.6294 268.4830 15.30148008 81870
STARLINK-31985          
1 60036U 24111W   25322.07726793 -.00003857  00000+0 -11826-3 0  9994
2 60036  53.1604 234.1561 0001387 120.5758 239.5380 15.30177738 81882
STARLINK-31918          
1 60037U 24111X   25322.04771948  .00039825  00000+0  13507-2 0  9993
2 60037  53.1593 233.9753 0001392  92.0699 268.0462 15.30172672 81872
STARLINK-11129 [DTC]    
1 60038U 24112A   25321.80428992 -.00002515  00000+0 -15877-4 0  9998
2 60038  53.1611  98.1585 0003030 251.2157 108.8533 15.69715055 83408
STARLINK-11140 [DTC]    
1 60039U 24112B   25321.79941169 -.00004505  00000+0 -32383-4 0  9995
2 60039  53.1595  98.1242 0000100 177.0143 183.0876 15.69692925 83400
