[{"OBJECT_NAME":"STARLINK-31992","OBJECT_ID":"2024-111H","EPOCH":"2025-11-18T01:12:48.606912","MEAN_MOTION":15.29322798,"ECCENTRICITY":0.000134,"INCLINATION":53.1605,"RA_OF_ASC_NODE":233.9956,"ARG_OF_PERICENTER":86.4328,"MEAN_ANOMALY":273.6826,"EPHEMERIS_TYPE":0,"CLASSIFICATION_TYPE":"U","NORAD_CAT_ID":60023,"ELEMENT_SET_NO":999,"REV_AT_EPOCH":8195,"BSTAR":-0.00067665,"MEAN_MOTION_DOT":-0.00019809,"MEAN_MOTION_DDOT":0},{"OBJECT_NAME":"STARLINK-31990","OBJECT_ID":"2024-111J","EPOCH":"2025-11-18T01:33:02.054304","MEAN_MOTION":15.30174818,"ECCENTRICITY":0.0001569,"INCLINATION":53.1595,"RA_OF_ASC_NODE":234.0836,"ARG_OF_PERICENTER":68.6049,"MEAN_ANOMALY":291.5119,"EPHEMERIS_TYPE":0,"CLASSIFICATION_TYPE":"U","NORAD_CAT_ID":60024,"ELEMENT_SET_NO":999,"REV_AT_EPOCH":8194,"BSTAR":-0.00010359,"MEAN_MOTION_DOT":-3.424e-5,"MEAN_MOTION_DDOT":0},{"OBJECT_NAME":"STARLINK-31864","OBJECT_ID":"2024-111K","EPOCH":"2025-11-18T04:00:03.000096","MEAN_MOTION":15.70300106,"ECCENTRICITY":0.0016516,"INCLINATION":53.1443,"RA_OF_ASC_NODE":226.6105,"ARG_OF_PERICENTER":163.8312,"MEAN_ANOMALY":289.7579,"EPHEMERIS_TYPE":0,"CLASSIFICATION_TYPE":"U","NORAD_CAT_ID":60025,"ELEMENT_SET_NO":999,"REV_AT_EPOCH":595,"BSTAR":0.0086571,"MEAN_MOTION_DOT":0.0119796,"MEAN_MOTION_DDOT":0},{"OBJECT_NAME":"STARLINK-31939","OBJECT_ID":"2024-111L","EPOCH":"2025-11-17T23:39:13.153824","MEAN_MOTION":15.301644,"ECCENTRICITY":0.0001358,"INCLINATION":53.1592,"RA_OF_ASC_NODE":234.3003,"ARG_OF_PERICENTER":94.3552,"MEAN_ANOMALY":265.7604,"EPHEMERIS_TYPE":0,"CLASSIFICATION_TYPE":"U","NORAD_CAT_ID":60026,"ELEMENT_SET_NO":999,"REV_AT_EPOCH":8193,"BSTAR":0.00037207,"MEAN_MOTION_DOT":0.00010664,"MEAN_MOTION_DDOT":0},{"OBJECT_NAME":"STARLINK-32012","OBJECT_ID":"2024-111M","EPOCH":"2025-11-18T01:17:50.898048","MEAN_MOTION":15.30143702,"ECCENTRICITY":9.82e-5,"INCLINATION":53.159,"RA_OF_ASC_NODE":234.0131,"ARG_OF_PERICENTER":104.1779,"MEAN_ANOMALY":255.9331,"EPHEMERIS_TYPE":0,"CLASSIFICATION_TYPE":"U","NORAD_CAT_ID":60027,"ELEMENT_SET_NO":999,"REV_AT_EPOCH":8194,"BSTAR":0.0010615,"MEAN_MOTION_DOT":0.00031157,"MEAN_MOTION_DDOT":0},{"OBJECT_NAME":"STARLINK-32008","OBJECT_ID":"2024-111N","EPOCH":"2025-11-18T01:23:54.885696","MEAN_MOTION":15.30177226,"ECCENTRICITY":0.0001526,"INCLINATION":53.1598,"RA_OF_ASC_NODE":234.0429,"ARG_OF_PERICENTER":95.1847,"MEAN_ANOMALY":264.9328,"EPHEMERIS_TYPE":0,"CLASSIFICATION_TYPE":"U","NORAD_CAT_ID":60028,"ELEMENT_SET_NO":999,"REV_AT_EPOCH":8194,"BSTAR":-1.4785e-5,"MEAN_MOTION_DOT":-7.97e-6,"MEAN_MOTION_DDOT":0},{"OBJECT_NAME":"STARLINK-32006","OBJECT_ID":"2024-111P","EPOCH":"2025-11-18T00:03:31.903776","MEAN_MOTION":15.30175045,"ECCENTRICITY":0.0001283,"INCLINATION":53.1601,"RA_OF_ASC_NODE":234.4085,"ARG_OF_PERICENTER":84.0844,"MEAN_ANOMALY":276.0303,"EPHEMERIS_TYPE":0,"CLASSIFICATION_TYPE":"U","NORAD_CAT_ID":60029,"ELEMENT_SET_NO":999,"REV_AT_EPOCH":8193,"BSTAR":-0.00028569,"MEAN_MOTION_DOT":-8.804e-5,"MEAN_MOTION_DDOT":0},{"OBJECT_NAME":"STARLINK-32011","OBJECT_ID":"2024-111Q","EPOCH":"2025-11-18T00:53:31.261632","MEAN_MOTION":15.30176343,"ECCENTRICITY":0.0001383,"INCLINATION":53.1604,"RA_OF_ASC_NODE":233.9144,"ARG_OF_PERICENTER":79.564,"MEAN_ANOMALY":280.5516,"EPHEMERIS_TYPE":0,"CLASSIFICATION_TYPE":"U","NORAD_CAT_ID":60030,"ELEMENT_SET_NO":999,"REV_AT_EPOCH":8194,"BSTAR":-0.00012132,"MEAN_MOTION_DOT":-3.948e-5,"MEAN_MOTION_DDOT":0},{"OBJECT_NAME":"STARLINK-31878","OBJECT_ID":"2024-111R","EPOCH":"2025-11-17T21:19:25.434912","MEAN_MOTION":15.30209021,"ECCENTRICITY":0.0001434,"INCLINATION":53.1597,"RA_OF_ASC_NODE":183.1623,"ARG_OF_PERICENTER":84.6738,"MEAN_ANOMALY":275.4426,"EPHEMERIS_TYPE":0,"CLASSIFICATION_TYPE":"U","NORAD_CAT_ID":60031,"ELEMENT_SET_NO":999,"REV_AT_EPOCH":8239,"BSTAR":0.00051865,"MEAN_MOTION_DOT":0.00015037,"MEAN_MOTION_DDOT":0},{"OBJECT_NAME":"STARLINK-32017","OBJECT_ID":"2024-111S","EPOCH":"2025-11-18T01:43:40.316160","MEAN_MOTION":15.30178162,"ECCENTRICITY":0.0001286,"INCLINATION":53.1597,"RA_OF_ASC_NODE":234.1486,"ARG_OF_PERICENTER":85.6906,"MEAN_ANOMALY":274.4242,"EPHEMERIS_TYPE":0,"CLASSIFICATION_TYPE":"U","NORAD_CAT_ID":60032,"ELEMENT_SET_NO":999,"REV_AT_EPOCH":8194,"BSTAR":5.7339e-5,"MEAN_MOTION_DOT":1.338e-5,"MEAN_MOTION_DDOT":0},{"OBJECT_NAME":"STARLINK-32005","OBJECT_ID":"2024-111U","EPOCH":"2025-11-18T01:28:29.155584","MEAN_MOTION":15.30183222,"ECCENTRICITY":0.000127,"INCLINATION":53.1608,"RA_OF_ASC_NODE":234.0604,"ARG_OF_PERICENTER":87.6843,"MEAN_ANOMALY":272.4303,"EPHEMERIS_TYPE":0,"CLASSIFICATION_TYPE":"U","NORAD_CAT_ID":60034,"ELEMENT_SET_NO":999,"REV_AT_EPOCH":8184,"BSTAR":-0.00014373,"MEAN_MOTION_DOT":-4.611e-5,"MEAN_MOTION_DDOT":0},{"OBJECT_NAME":"STARLINK-31981","OBJECT_ID":"2024-111V","EPOCH":"2025-11-18T01:55:49.389600","MEAN_MOTION":15.30148008,"ECCENTRICITY":0.0001074,"INCLINATION":53.1612,"RA_OF_ASC_NODE":234.1774,"ARG_OF_PERICENTER":91.6294,"MEAN_ANOMALY":268.483,"EPHEMERIS_TYPE":0,"CLASSIFICATION_TYPE":"U","NORAD_CAT_ID":60035,"ELEMENT_SET_NO":999,"REV_AT_EPOCH":8187,"BSTAR":-0.0007262,"MEAN_MOTION_DOT":-0.0002177,"MEAN_MOTION_DDOT":0},{"OBJECT_NAME":"STARLINK-31985","OBJECT_ID":"2024-111W","EPOCH":"2025-11-18T01:51:15.949152","MEAN_MOTION":15.30177738,"ECCENTRICITY":0.0001387,"INCLINATION":53.1604,"RA_OF_ASC_NODE":234.1561,"ARG_OF_PERICENTER":120.5758,"MEAN_ANOMALY":239.538,"EPHEMERIS_TYPE":0,"CLASSIFICATION_TYPE":"U","NORAD_CAT_ID":60036,"ELEMENT_SET_NO":999,"REV_AT_EPOCH":8188,"BSTAR":-0.00011826,"MEAN_MOTION_DOT":-3.857e-5,"MEAN_MOTION_DDOT":0},{"OBJECT_NAME":"STARLINK-31918","OBJECT_ID":"2024-111X","EPOCH":"2025-11-18T01:08:42.963072","MEAN_MOTION":15.30172672,"ECCENTRICITY":0.0001392,"INCLINATION":53.1593,"RA_OF_ASC_NODE":233.9753,"ARG_OF_PERICENTER":92.0699,"MEAN_ANOMALY":268.0462,"EPHEMERIS_TYPE":0,"CLASSIFICATION_TYPE":"U","NORAD_CAT_ID":60037,"ELEMENT_SET_NO":999,"REV_AT_EPOCH":8187,"BSTAR":0.0013507,"MEAN_MOTION_DOT":0.00039825,"MEAN_MOTION_DDOT":0},{"OBJECT_NAME":"STARLINK-11129 [DTC]","OBJECT_ID":"2024-112A","EPOCH":"2025-11-17T19:18:10.649088","MEAN_MOTION":15.69715055,"ECCENTRICITY":0.000303,"INCLINATION":53.1611,"RA_OF_ASC_NODE":98.1585,"ARG_OF_PERICENTER":251.2157,"MEAN_ANOMALY":108.8533,"EPHEMERIS_TYPE":0,"CLASSIFICATION_TYPE":"U","NORAD_CAT_ID":60038,"ELEMENT_SET_NO":999,"REV_AT_EPOCH":8340,"BSTAR":-1.5877e-5,"MEAN_MOTION_DOT":-2.515e-5,"MEAN_MOTION_DDOT":0},{"OBJECT_NAME":"STARLINK-11140 [DTC]","OBJECT_ID":"2024-112B","EPOCH":"2025-11-17T19:11:09.170016","MEAN_MOTION":15.69692925,"ECCENTRICITY":1.0e-5,"INCLINATION":53.1595,"RA_OF_ASC_NODE":98.1242,"ARG_OF_PERICENTER":177.0143,"MEAN_ANOMALY":183.0876,"EPHEMERIS_TYPE":0,"CLASSIFICATION_TYPE":"U","NORAD_CAT_ID":60039,"ELEMENT_SET_NO":999,"REV_AT_EPOCH":8340,"BSTAR":-3.2383e-5,"MEAN_MOTION_DOT":-4.505e-5,"MEAN_MOTION_DDOT":0}]
